ONEWEB-0461             
1 51649U 22012AD  25154.15573889  .00000010  00000+0 -80948-5 0  9990
2 51649  87.9064  81.3136 0002075  77.4748 282.6615 13.17649196165261
ONEWEB-0463             
1 51650U 22012AE  25153.83343293  .00000021  00000+0  20115-4 0  9990
2 51650  87.9068  81.4401 0001992  77.8228 282.3127 13.17649306165018
ONEWEB-0464             
1 51651U 22012AF  25153.15435840 -.00000401  00000+0 -11843-2 0  9996
2 51651  87.8822 112.0626 0001897  91.2166 268.9178 13.10375692160851
ONEWEB-0468             
1 51652U 22012AG  25153.31371577  .00000034  00000+0  62319-4 0  9997
2 51652  87.8822 112.0226 0002028  82.5284 277.6074 13.10376327160846
ONEWEB-0473             
1 51653U 22012AH  25152.91698284 -.00000624  00000+0 -18246-2 0  9995
2 51653  87.8818 112.1049 0001916  81.7706 278.3638 13.10374060160803
ONEWEB-0474             
1 51654U 22012AJ  25153.13775677 -.00000529  00000+0 -15530-2 0  9990
2 51654  87.8808 112.0261 0001810  86.1023 274.0311 13.10371901160815
ONEWEB-0475             
1 51655U 22012AK  25153.54149358  .00000030  00000+0  44803-4 0  9999
2 51655  87.9068  81.4781 0001230  79.5079 280.6191 13.17650970164988
ONEWEB-0490             
1 54113U 22138A   25154.12643453  .00000094  00000+0  20354-3 0  9994
2 54113  87.9225  20.3073 0001773  90.2139 269.9197 13.19727155127707
